CCSDS_OMM_VERS = 2.0
CREATION_DATE  = 
ORIGINATOR     = 

OBJECT_NAME    = 2025-313AG
OBJECT_ID      = 2025-313AG
CENTER_NAME    = EARTH
REF_FRAME      = TEME
TIME_SYSTEM    = UTC
MEAN_ELEMENT_THEORY = SGP/SGP4

EPOCH          = 2026-01-15T15:32:47.356512
MEAN_MOTION    = 15.20210970
ECCENTRICITY   = .00144669
INCLINATION    = 97.4096
RA_OF_ASC_NODE = 92.8013
ARG_OF_PERICENTER = 176.7483
MEAN_ANOMALY   = 183.3849

EPHEMERIS_TYPE = 0
CLASSIFICATION_TYPE = U
NORAD_CAT_ID   = 67278
ELEMENT_SET_NO = 999
REV_AT_EPOCH   = 276
BSTAR          = .17823362E-3
MEAN_MOTION_DOT = .3803E-4
MEAN_MOTION_DDOT = 0

CCSDS_OMM_VERS = 2.0
CREATION_DATE  = 
ORIGINATOR     = 

OBJECT_NAME    = GALAPAGOS-UTE-SWSU
OBJECT_ID      = 2025-313AH
CENTER_NAME    = EARTH
REF_FRAME      = TEME
TIME_SYSTEM    = UTC
MEAN_ELEMENT_THEORY = SGP/SGP4

EPOCH          = 2026-01-15T15:31:52.522752
MEAN_MOTION    = 15.20286876
ECCENTRICITY   = .0015037
INCLINATION    = 97.4107
RA_OF_ASC_NODE = 92.8044
ARG_OF_PERICENTER = 173.7688
MEAN_ANOMALY   = 186.3738

EPHEMERIS_TYPE = 0
CLASSIFICATION_TYPE = U
NORAD_CAT_ID   = 67279
ELEMENT_SET_NO = 999
REV_AT_EPOCH   = 275
BSTAR          = .20032229E-3
MEAN_MOTION_DOT = .4294E-4
MEAN_MOTION_DDOT = 0

CCSDS_OMM_VERS = 2.0
CREATION_DATE  = 
ORIGINATOR     = 

OBJECT_NAME    = 2025-313AJ
OBJECT_ID      = 2025-313AJ
CENTER_NAME    = EARTH
REF_FRAME      = TEME
TIME_SYSTEM    = UTC
MEAN_ELEMENT_THEORY = SGP/SGP4

EPOCH          = 2026-01-15T15:26:06.181440
MEAN_MOTION    = 15.20580229
ECCENTRICITY   = .00139479
INCLINATION    = 97.4176
RA_OF_ASC_NODE = 92.8137
ARG_OF_PERICENTER = 170.3794
MEAN_ANOMALY   = 189.7711

EPHEMERIS_TYPE = 0
CLASSIFICATION_TYPE = U
NORAD_CAT_ID   = 67280
ELEMENT_SET_NO = 999
REV_AT_EPOCH   = 275
BSTAR          = .15761064E-3
MEAN_MOTION_DOT = .3391E-4
MEAN_MOTION_DDOT = 0

CCSDS_OMM_VERS = 2.0
CREATION_DATE  = 
ORIGINATOR     = 

OBJECT_NAME    = 2025-313AK
OBJECT_ID      = 2025-313AK
CENTER_NAME    = EARTH
REF_FRAME      = TEME
TIME_SYSTEM    = UTC
MEAN_ELEMENT_THEORY = SGP/SGP4

EPOCH          = 2026-01-15T15:24:33.260832
MEAN_MOTION    = 15.20671675
ECCENTRICITY   = .00126748
INCLINATION    = 97.4060
RA_OF_ASC_NODE = 92.7984
ARG_OF_PERICENTER = 169.1406
MEAN_ANOMALY   = 191.0106

EPHEMERIS_TYPE = 0
CLASSIFICATION_TYPE = U
NORAD_CAT_ID   = 67281
ELEMENT_SET_NO = 999
REV_AT_EPOCH   = 275
BSTAR          = .15786644E-3
MEAN_MOTION_DOT = .3405E-4
MEAN_MOTION_DDOT = 0

CCSDS_OMM_VERS = 2.0
CREATION_DATE  = 
ORIGINATOR     = 

OBJECT_NAME    = 2025-313AL
OBJECT_ID      = 2025-313AL
CENTER_NAME    = EARTH
REF_FRAME      = TEME
TIME_SYSTEM    = UTC
MEAN_ELEMENT_THEORY = SGP/SGP4

EPOCH          = 2026-01-15T15:18:18.924192
MEAN_MOTION    = 15.21049805
ECCENTRICITY   = .00114591
INCLINATION    = 97.4110
RA_OF_ASC_NODE = 92.8039
ARG_OF_PERICENTER = 168.0289
MEAN_ANOMALY   = 192.1222

EPHEMERIS_TYPE = 0
CLASSIFICATION_TYPE = U
NORAD_CAT_ID   = 67282
ELEMENT_SET_NO = 999
REV_AT_EPOCH   = 275
BSTAR          = .15558075E-3
MEAN_MOTION_DOT = .3391E-4
MEAN_MOTION_DDOT = 0

CCSDS_OMM_VERS = 2.0
CREATION_DATE  = 
ORIGINATOR     = 

OBJECT_NAME    = HORS 5
OBJECT_ID      = 2025-313AM
CENTER_NAME    = EARTH
REF_FRAME      = TEME
TIME_SYSTEM    = UTC
MEAN_ELEMENT_THEORY = SGP/SGP4

EPOCH          = 2026-01-15T15:17:04.752384
MEAN_MOTION    = 15.21183098
ECCENTRICITY   = .00113494
INCLINATION    = 97.4117
RA_OF_ASC_NODE = 92.8072
ARG_OF_PERICENTER = 168.0546
MEAN_ANOMALY   = 192.0962

EPHEMERIS_TYPE = 0
CLASSIFICATION_TYPE = U
NORAD_CAT_ID   = 67283
ELEMENT_SET_NO = 999
REV_AT_EPOCH   = 275
BSTAR          = .24027295E-3
MEAN_MOTION_DOT = .5296E-4
MEAN_MOTION_DDOT = 0

CCSDS_OMM_VERS = 2.0
CREATION_DATE  = 
ORIGINATOR     = 

OBJECT_NAME    = LOBACHEVSKY (RS83S)
OBJECT_ID      = 2025-313AN
CENTER_NAME    = EARTH
REF_FRAME      = TEME
TIME_SYSTEM    = UTC
MEAN_ELEMENT_THEORY = SGP/SGP4

EPOCH          = 2026-01-15T15:18:30.439584
MEAN_MOTION    = 15.20997153
ECCENTRICITY   = .00113292
INCLINATION    = 97.4102
RA_OF_ASC_NODE = 92.8017
ARG_OF_PERICENTER = 167.9001
MEAN_ANOMALY   = 192.2509

EPHEMERIS_TYPE = 0
CLASSIFICATION_TYPE = U
NORAD_CAT_ID   = 67284
ELEMENT_SET_NO = 999
REV_AT_EPOCH   = 275
BSTAR          = .10680571E-3
MEAN_MOTION_DOT = .2302E-4
MEAN_MOTION_DDOT = 0

CCSDS_OMM_VERS = 2.0
CREATION_DATE  = 
ORIGINATOR     = 

OBJECT_NAME    = NASBSAT-2
OBJECT_ID      = 2025-313AP
CENTER_NAME    = EARTH
REF_FRAME      = TEME
TIME_SYSTEM    = UTC
MEAN_ELEMENT_THEORY = SGP/SGP4

EPOCH          = 2026-01-15T15:15:53.696160
MEAN_MOTION    = 15.21242010
ECCENTRICITY   = .00109617
INCLINATION    = 97.4094
RA_OF_ASC_NODE = 92.8020
ARG_OF_PERICENTER = 169.4071
MEAN_ANOMALY   = 190.7398

EPHEMERIS_TYPE = 0
CLASSIFICATION_TYPE = U
NORAD_CAT_ID   = 67285
ELEMENT_SET_NO = 999
REV_AT_EPOCH   = 275
BSTAR          = .2317071E-3
MEAN_MOTION_DOT = .5113E-4
MEAN_MOTION_DDOT = 0

CCSDS_OMM_VERS = 2.0
CREATION_DATE  = 
ORIGINATOR     = 

OBJECT_NAME    = 2025-313AQ
OBJECT_ID      = 2025-313AQ
CENTER_NAME    = EARTH
REF_FRAME      = TEME
TIME_SYSTEM    = UTC
MEAN_ELEMENT_THEORY = SGP/SGP4

EPOCH          = 2026-01-15T15:15:05.587776
MEAN_MOTION    = 15.21271281
ECCENTRICITY   = .00106832
INCLINATION    = 97.4116
RA_OF_ASC_NODE = 92.8165
ARG_OF_PERICENTER = 165.4897
MEAN_ANOMALY   = 194.6648

EPHEMERIS_TYPE = 0
CLASSIFICATION_TYPE = U
NORAD_CAT_ID   = 67286
ELEMENT_SET_NO = 999
REV_AT_EPOCH   = 275
BSTAR          = .20513845E-3
MEAN_MOTION_DOT = .4522E-4
MEAN_MOTION_DDOT = 0

CCSDS_OMM_VERS = 2.0
CREATION_DATE  = 
ORIGINATOR     = 

OBJECT_NAME    = LUCA (RS90S)
OBJECT_ID      = 2025-313AR
CENTER_NAME    = EARTH
REF_FRAME      = TEME
TIME_SYSTEM    = UTC
MEAN_ELEMENT_THEORY = SGP/SGP4

EPOCH          = 2026-01-15T15:14:11.013216
MEAN_MOTION    = 15.21361791
ECCENTRICITY   = .00105624
INCLINATION    = 97.4116
RA_OF_ASC_NODE = 92.8176
ARG_OF_PERICENTER = 166.0986
MEAN_ANOMALY   = 194.0543

EPHEMERIS_TYPE = 0
CLASSIFICATION_TYPE = U
NORAD_CAT_ID   = 67287
ELEMENT_SET_NO = 999
REV_AT_EPOCH   = 275
BSTAR          = .25720017E-3
MEAN_MOTION_DOT = .5703E-4
MEAN_MOTION_DDOT = 0

CCSDS_OMM_VERS = 2.0
CREATION_DATE  = 
ORIGINATOR     = 

OBJECT_NAME    = 2025-313AS
OBJECT_ID      = 2025-313AS
CENTER_NAME    = EARTH
REF_FRAME      = TEME
TIME_SYSTEM    = UTC
MEAN_ELEMENT_THEORY = SGP/SGP4

EPOCH          = 2026-01-15T15:15:25.523712
MEAN_MOTION    = 15.21219670
ECCENTRICITY   = .00124245
INCLINATION    = 97.4105
RA_OF_ASC_NODE = 92.8127
ARG_OF_PERICENTER = 158.9157
MEAN_ANOMALY   = 201.2594

EPHEMERIS_TYPE = 0
CLASSIFICATION_TYPE = U
NORAD_CAT_ID   = 67288
ELEMENT_SET_NO = 999
REV_AT_EPOCH   = 275
BSTAR          = .16123723E-3
MEAN_MOTION_DOT = .3535E-4
MEAN_MOTION_DDOT = 0

CCSDS_OMM_VERS = 2.0
CREATION_DATE  = 
ORIGINATOR     = 

OBJECT_NAME    = NASBSAT-1
OBJECT_ID      = 2025-313AT
CENTER_NAME    = EARTH
REF_FRAME      = TEME
TIME_SYSTEM    = UTC
MEAN_ELEMENT_THEORY = SGP/SGP4

EPOCH          = 2026-01-15T15:12:36.598752
MEAN_MOTION    = 15.21519567
ECCENTRICITY   = .00104626
INCLINATION    = 97.4117
RA_OF_ASC_NODE = 92.8196
ARG_OF_PERICENTER = 166.6273
MEAN_ANOMALY   = 193.5243

EPHEMERIS_TYPE = 0
CLASSIFICATION_TYPE = U
NORAD_CAT_ID   = 67289
ELEMENT_SET_NO = 999
REV_AT_EPOCH   = 275
BSTAR          = .3607038E-3
MEAN_MOTION_DOT = .8065E-4
MEAN_MOTION_DDOT = 0

