2025-313AG              
1 67278U 25313AG  26015.64777033  .00003803  00000+0  17823-3 0  9992
2 67278  97.4096  92.8013 0014466 176.7483 183.3849 15.20210970  2765
GALAPAGOS-UTE-SWSU      
1 67279U 25313AH  26015.64713568  .00004294  00000+0  20032-3 0  9997
2 67279  97.4107  92.8044 0015037 173.7688 186.3738 15.20286876  2759
2025-313AJ              
1 67280U 25313AJ  26015.64312710  .00003391  00000+0  15761-3 0  9993
2 67280  97.4176  92.8137 0013947 170.3794 189.7711 15.20580229  2756
2025-313AK              
1 67281U 25313AK  26015.64205163  .00003405  00000+0  15787-3 0  9991
2 67281  97.4060  92.7984 0012674 169.1406 191.0106 15.20671675  2750
2025-313AL              
1 67282U 25313AL  26015.63771903  .00003391  00000+0  15558-3 0  9991
2 67282  97.4110  92.8039 0011459 168.0289 192.1222 15.21049805  2752
HORS 5                  
1 67283U 25313AM  26015.63686056  .00005296  00000+0  24027-3 0  9993
2 67283  97.4117  92.8072 0011349 168.0546 192.0962 15.21183098  2754
LOBACHEVSKY (RS83S)     
1 67284U 25313AN  26015.63785231  .00002302  00000+0  10681-3 0  9995
2 67284  97.4102  92.8017 0011329 167.9001 192.2509 15.20997153  2753
NASBSAT-2               
1 67285U 25313AP  26015.63603815  .00005113  00000+0  23171-3 0  9994
2 67285  97.4094  92.8020 0010961 169.4071 190.7398 15.21242010  2758
2025-313AQ              
1 67286U 25313AQ  26015.63548134  .00004522  00000+0  20514-3 0  9998
2 67286  97.4116  92.8165 0010683 165.4897 194.6648 15.21271281  2750
LUCA (RS90S)            
1 67287U 25313AR  26015.63484969  .00005703  00000+0  25720-3 0  9990
2 67287  97.4116  92.8176 0010562 166.0986 194.0543 15.21361791  2759
2025-313AS              
1 67288U 25313AS  26015.63571208  .00003535  00000+0  16124-3 0  9993
2 67288  97.4105  92.8127 0012424 158.9157 201.2594 15.21219670  2758
NASBSAT-1               
1 67289U 25313AT  26015.63375693  .00008065  00000+0  36070-3 0  9999
2 67289  97.4117  92.8196 0010462 166.6273 193.5243 15.21519567  2755
